ONEWEB-0612             
1 54675U 22166AK  23312.84256261 -.00000285  00000+0 -72174-3 0  9999
2 54675  87.9232  73.3548 0002504 100.0814 260.0602 13.21829324 45757
ONEWEB-0615             
1 54676U 22166AL  23312.89933197  .00000065  00000+0  12482-3 0  9995
2 54676  87.9244  73.3596 0001868  91.1770 268.9578 13.21825208 45775
ONEWEB-0655             
1 54677U 22166AM  23312.87253022  .00000279  00000+0  64452-3 0  9997
2 54677  87.9235  73.3697 0002027  90.4673 269.6693 13.21826161 45764
ONEWEB-0659             
1 54678U 22166AN  23312.88985014  .00000041  00000+0  66993-4 0  9992
2 54678  87.9213  73.3876 0001341 104.9381 255.1901 13.21827959 45853
ONEWEB-0685             
1 54679U 22166AP  23313.04282085  .00000016  00000+0  82589-5 0  9992
2 54679  87.9242  73.3299 0002396  89.5418 270.5991 13.21823118 46231
ONEWEB-0712             
1 54680U 22166AQ  23312.83722531 -.00000211  00000+0 -58435-3 0  9995
2 54680  87.9229  58.0994 0001173  95.9479 264.1785 13.16596989 46877
ONEWEB-0714             
1 54681U 22166AR  23313.04913457  .00000092  00000+0  19079-3 0  9995
2 54681  87.9233  73.3170 0001908  92.9073 267.2279 13.21826036 46352
ONEWEB-0532             
1 55140U 23004A   23312.93194836  .00000018  00000+0  14018-4 0  9994
2 55140  87.9247 194.9369 0001963 102.2860 257.8491 13.17647459 42316
